13603,COSMOS 1413 [GLONASS],1982,673.32,-1.0,-,64.62,Inactive,0,MEO,Kazakhstan,Russia/USSR,Unknown,Unknown,Unknown,1 13603U 82100A   25102.48720523  .00000010  00000+0  00000+0 0  9994,2 13603  64.6200  81.7930 0007744  19.6837  69.9015  2.13866978331969,2.13866978,0.0007744,MEO
13606,COSMOS 1414 [GLONASS],1982,675.73,-1.0,-,64.55,Inactive,0,MEO,Kazakhstan,Russia/USSR,Unknown,Unknown,Unknown,1 13606U 82100D   25102.47952284  .00000020  00000+0  00000+0 0  9998,2 13606  64.5486  86.0339 0077916  31.1280 328.1523  2.13103901330713,2.13103901,0.0077916,MEO
13607,COSMOS 1415 [GLONASS],1982,673.49,-1.0,-,64.6,Inactive,0,MEO,Kazakhstan,Russia/USSR,Unknown,Unknown,Unknown,1 13607U 82100E   25102.40621242  .00000010  00000+0  00000+0 0  9998,2 13607  64.6028  81.7520 0004770  18.9594  89.8118  2.13810426331731,2.13810426,0.000477,MEO
14258,COSMOS 1490 [GLONASS],1983,675.73,-1.0,-,64.61,Inactive,0,MEO,Kazakhstan,Russia/USSR,Unknown,Unknown,Unknown,1 14258U 83084A   25102.41012567  .00000023  00000+0  00000+0 0  9992,2 14258  64.6114  87.5972 0015007  11.1720 124.4977  2.13103330324264,2.1310333,0.0015007,MEO
14259,COSMOS 1491 [GLONASS],1983,668.42,-1.0,-,64.75,Inactive,0,MEO,Kazakhstan,Russia/USSR,Unknown,Unknown,Unknown,1 14259U 83084B   25103.31043170 -.00000010  00000+0  00000+0 0  9994,2 14259  64.7500  73.1846 0021189 306.9116 236.3873  2.15434738326876,2.15434738,0.0021189,MEO
14260,COSMOS 1492 [GLONASS],1983,676.82,-1.0,-,64.58,Inactive,0,MEO,Kazakhstan,Russia/USSR,Unknown,Unknown,Unknown,1 14260U 83084C   25102.44257258  .00000027  00000+0  00000+0 0  9990,2 14260  64.5754  89.3055 0001751 339.5668 139.3040  2.12759064322418,2.12759064,0.0001751,MEO
14591,COSMOS 1520 [GLONASS],1983,675.73,-1.0,-,66.57,Inactive,0,MEO,Kazakhstan,Russia/USSR,Unknown,Unknown,Unknown,1 14591U 83127B   25103.31503089 -.00000061  00000+0  00000+0 0  9997,2 14591  66.5716 343.0370 0022683 172.5604   9.9092  2.13102843261797,2.13102843,0.0022683,MEO
14977,COSMOS 1554 [GLONASS],1984,675.74,-1.0,-,66.53,Inactive,0,MEO,Kazakhstan,Russia/USSR,Unknown,Unknown,Unknown,1 14977U 84047A   25102.43030924 -.00000061  00000+0  00000+0 0  9992,2 14977  66.5321 342.2159 0016697 216.6440 288.0384  2.13099547 94704,2.13099547,0.0016697,MEO
14978,COSMOS 1555 [GLONASS],1984,675.73,-1.0,-,66.55,Inactive,0,MEO,Kazakhstan,Russia/USSR,Unknown,Unknown,Unknown,1 14978U 84047B   25102.43026457 -.00000062  00000+0  00000+0 0  9990,2 14978  66.5455 342.6934 0011686 173.7152 331.2422  2.13102162290322,2.13102162,0.0011686,MEO
14979,COSMOS 1556 [GLONASS],1984,676.33,-1.0,-,66.57,Inactive,0,MEO,Kazakhstan,Russia/USSR,Unknown,Unknown,Unknown,1 14979U 84047C   25096.83016152 -.00000080  00000+0  00000+0 0  9998,2 14979  66.5742 343.9641 0009093 194.7289 348.5920  2.12912291317802,2.12912291,0.0009093,MEO
15259,COSMOS 1593 [GLONASS],1984,675.72,-1.0,-,64.62,Inactive,0,MEO,Kazakhstan,Russia/USSR,Unknown,Unknown,Unknown,1 15259U 84095A   25103.09152465  .00000021  00000+0  00000+0 0  9992,2 15259  64.6188  87.5686 0023580 216.2853 237.0446  2.13105054269219,2.13105054,0.002358,MEO
