[
    {
        "OBJECT_NAME": "COSMOS 1413 [GLONASS]",
        "OBJECT_ID": "1982-100A",
        "EPOCH": "2025-04-12T11:41:34.531872",
        "MEAN_MOTION": 2.13866978,
        "ECCENTRICITY": 0.0007744,
        "INCLINATION": 64.62,
        "RA_OF_ASC_NODE": 81.793,
        "ARG_OF_PERICENTER": 19.6837,
        "MEAN_ANOMALY": 69.9015,
        "EPHEMERIS_TYPE": 0,
        "CLASSIFICATION_TYPE": "U",
        "NORAD_CAT_ID": 13603,
        "ELEMENT_SET_NO": 999,
        "REV_AT_EPOCH": 33196,
        "BSTAR": 0,
        "MEAN_MOTION_DOT": 1e-07,
        "MEAN_MOTION_DDOT": 0
    },
    {
        "OBJECT_NAME": "COSMOS 1414 [GLONASS]",
        "OBJECT_ID": "1982-100D",
        "EPOCH": "2025-04-12T11:30:30.773376",
        "MEAN_MOTION": 2.13103901,
        "ECCENTRICITY": 0.0077916,
        "INCLINATION": 64.5486,
        "RA_OF_ASC_NODE": 86.0339,
        "ARG_OF_PERICENTER": 31.128,
        "MEAN_ANOMALY": 328.1523,
        "EPHEMERIS_TYPE": 0,
        "CLASSIFICATION_TYPE": "U",
        "NORAD_CAT_ID": 13606,
        "ELEMENT_SET_NO": 999,
        "REV_AT_EPOCH": 33071,
        "BSTAR": 0,
        "MEAN_MOTION_DOT": 2e-07,
        "MEAN_MOTION_DDOT": 0
    },
    {
        "OBJECT_NAME": "COSMOS 1415 [GLONASS]",
        "OBJECT_ID": "1982-100E",
        "EPOCH": "2025-04-12T09:44:56.753088",
        "MEAN_MOTION": 2.13810426,
        "ECCENTRICITY": 0.000477,
        "INCLINATION": 64.6028,
        "RA_OF_ASC_NODE": 81.752,
        "ARG_OF_PERICENTER": 18.9594,
        "MEAN_ANOMALY": 89.8118,
        "EPHEMERIS_TYPE": 0,
        "CLASSIFICATION_TYPE": "U",
        "NORAD_CAT_ID": 13607,
        "ELEMENT_SET_NO": 999,
        "REV_AT_EPOCH": 33173,
        "BSTAR": 0,
        "MEAN_MOTION_DOT": 1e-07,
        "MEAN_MOTION_DDOT": 0
    },
    {
        "OBJECT_NAME": "COSMOS 1490 [GLONASS]",
        "OBJECT_ID": "1983-084A",
        "EPOCH": "2025-04-12T09:50:34.857888",
        "MEAN_MOTION": 2.1310333,
        "ECCENTRICITY": 0.0015007,
        "INCLINATION": 64.6114,
        "RA_OF_ASC_NODE": 87.5972,
        "ARG_OF_PERICENTER": 11.172,
        "MEAN_ANOMALY": 124.4977,
        "EPHEMERIS_TYPE": 0,
        "CLASSIFICATION_TYPE": "U",
        "NORAD_CAT_ID": 14258,
        "ELEMENT_SET_NO": 999,
        "REV_AT_EPOCH": 32426,
        "BSTAR": 0,
        "MEAN_MOTION_DOT": 2.3e-07,
        "MEAN_MOTION_DDOT": 0
    },
    {
        "OBJECT_NAME": "COSMOS 1491 [GLONASS]",
        "OBJECT_ID": "1983-084B",
        "EPOCH": "2025-04-13T07:27:01.298880",
        "MEAN_MOTION": 2.15434738,
        "ECCENTRICITY": 0.0021189,
        "INCLINATION": 64.75,
        "RA_OF_ASC_NODE": 73.1846,
        "ARG_OF_PERICENTER": 306.9116,
        "MEAN_ANOMALY": 236.3873,
        "EPHEMERIS_TYPE": 0,
        "CLASSIFICATION_TYPE": "U",
        "NORAD_CAT_ID": 14259,
        "ELEMENT_SET_NO": 999,
        "REV_AT_EPOCH": 32687,
        "BSTAR": 0,
        "MEAN_MOTION_DOT": -1e-07,
        "MEAN_MOTION_DDOT": 0
    },
    {
        "OBJECT_NAME": "COSMOS 1492 [GLONASS]",
        "OBJECT_ID": "1983-084C",
        "EPOCH": "2025-04-12T10:37:18.270912",
        "MEAN_MOTION": 2.12759064,
        "ECCENTRICITY": 0.0001751,
        "INCLINATION": 64.5754,
        "RA_OF_ASC_NODE": 89.3055,
        "ARG_OF_PERICENTER": 339.5668,
        "MEAN_ANOMALY": 139.304,
        "EPHEMERIS_TYPE": 0,
        "CLASSIFICATION_TYPE": "U",
        "NORAD_CAT_ID": 14260,
        "ELEMENT_SET_NO": 999,
        "REV_AT_EPOCH": 32241,
        "BSTAR": 0,
        "MEAN_MOTION_DOT": 2.7e-07,
        "MEAN_MOTION_DDOT": 0
    },
    {
        "OBJECT_NAME": "COSMOS 1520 [GLONASS]",
        "OBJECT_ID": "1983-127B",
        "EPOCH": "2025-04-13T07:33:38.668896",
        "MEAN_MOTION": 2.13102843,
        "ECCENTRICITY": 0.0022683,
        "INCLINATION": 66.5716,
        "RA_OF_ASC_NODE": 343.037,
        "ARG_OF_PERICENTER": 172.5604,
        "MEAN_ANOMALY": 9.9092,
        "EPHEMERIS_TYPE": 0,
        "CLASSIFICATION_TYPE": "U",
        "NORAD_CAT_ID": 14591,
        "ELEMENT_SET_NO": 999,
        "REV_AT_EPOCH": 26179,
        "BSTAR": 0,
        "MEAN_MOTION_DOT": -6.1e-07,
        "MEAN_MOTION_DDOT": 0
    },
    {
        "OBJECT_NAME": "COSMOS 1554 [GLONASS]",
        "OBJECT_ID": "1984-047A",
        "EPOCH": "2025-04-12T10:19:38.718336",
        "MEAN_MOTION": 2.13099547,
        "ECCENTRICITY": 0.0016697,
        "INCLINATION": 66.5321,
        "RA_OF_ASC_NODE": 342.2159,
        "ARG_OF_PERICENTER": 216.644,
        "MEAN_ANOMALY": 288.0384,
        "EPHEMERIS_TYPE": 0,
        "CLASSIFICATION_TYPE": "U",
        "NORAD_CAT_ID": 14977,
        "ELEMENT_SET_NO": 999,
        "REV_AT_EPOCH": 9470,
        "BSTAR": 0,
        "MEAN_MOTION_DOT": -6.1e-07,
        "MEAN_MOTION_DDOT": 0
    },
    {
        "OBJECT_NAME": "COSMOS 1555 [GLONASS]",
        "OBJECT_ID": "1984-047B",
        "EPOCH": "2025-04-12T10:19:34.858848",
        "MEAN_MOTION": 2.13102162,
        "ECCENTRICITY": 0.0011686,
        "INCLINATION": 66.5455,
        "RA_OF_ASC_NODE": 342.6934,
        "ARG_OF_PERICENTER": 173.7152,
        "MEAN_ANOMALY": 331.2422,
        "EPHEMERIS_TYPE": 0,
        "CLASSIFICATION_TYPE": "U",
        "NORAD_CAT_ID": 14978,
        "ELEMENT_SET_NO": 999,
        "REV_AT_EPOCH": 29032,
        "BSTAR": 0,
        "MEAN_MOTION_DOT": -6.2e-07,
        "MEAN_MOTION_DDOT": 0
    },
    {
        "OBJECT_NAME": "COSMOS 1556 [GLONASS]",
        "OBJECT_ID": "1984-047C",
        "EPOCH": "2025-04-06T19:55:25.955328",
        "MEAN_MOTION": 2.12912291,
        "ECCENTRICITY": 0.0009093,
        "INCLINATION": 66.5742,
        "RA_OF_ASC_NODE": 343.9641,
        "ARG_OF_PERICENTER": 194.7289,
        "MEAN_ANOMALY": 348.592,
        "EPHEMERIS_TYPE": 0,
        "CLASSIFICATION_TYPE": "U",
        "NORAD_CAT_ID": 14979,
        "ELEMENT_SET_NO": 999,
        "REV_AT_EPOCH": 31780,
        "BSTAR": 0,
        "MEAN_MOTION_DOT": -8e-07,
        "MEAN_MOTION_DDOT": 0
    },
    {
        "OBJECT_NAME": "COSMOS 1593 [GLONASS]",
        "OBJECT_ID": "1984-095A",
        "EPOCH": "2025-04-13T02:11:47.729760",
        "MEAN_MOTION": 2.13105054,
        "ECCENTRICITY": 0.002358,
        "INCLINATION": 64.6188,
        "RA_OF_ASC_NODE": 87.5686,
        "ARG_OF_PERICENTER": 216.2853,
        "MEAN_ANOMALY": 237.0446,
        "EPHEMERIS_TYPE": 0,
        "CLASSIFICATION_TYPE": "U",
        "NORAD_CAT_ID": 15259,
        "ELEMENT_SET_NO": 999,
        "REV_AT_EPOCH": 26921,
        "BSTAR": 0,
        "MEAN_MOTION_DOT": 2.1e-07,
        "MEAN_MOTION_DDOT": 0
    }
]